STARLINK-3119           
1 49145U 21082R   26068.91794704  .00000402  00000+0  41519-4 0  9998
2 49145  69.9989 253.8624 0002635 269.6747  90.4110 14.98331314246994
EZIE-A                  
1 63247U 25052AP  26068.97824436  .00008013  00000+0  71343-3 0  9993
2 63247  97.7004 322.7329 0003742 145.0909 215.0559 14.96303626 53828
