[{"OBJECT_NAME":"STARLINK-3119","OBJECT_ID":"2021-082R","EPOCH":"2026-03-09T22:01:50.624256","MEAN_MOTION":14.98331314,"ECCENTRICITY":0.00026353,"INCLINATION":69.9989,"RA_OF_ASC_NODE":253.8624,"ARG_OF_PERICENTER":269.6747,"MEAN_ANOMALY":90.411,"EPHEMERIS_TYPE":0,"CLASSIFICATION_TYPE":"U","NORAD_CAT_ID":49145,"ELEMENT_SET_NO":999,"REV_AT_EPOCH":24699,"BSTAR":4.1518859e-5,"MEAN_MOTION_DOT":4.02e-6,"MEAN_MOTION_DDOT":0},{"OBJECT_NAME":"EZIE-A","OBJECT_ID":"2025-052AP","EPOCH":"2026-03-09T23:28:40.313568","MEAN_MOTION":14.96303626,"ECCENTRICITY":0.00037417,"INCLINATION":97.7004,"RA_OF_ASC_NODE":322.7329,"ARG_OF_PERICENTER":145.0909,"MEAN_ANOMALY":215.0559,"EPHEMERIS_TYPE":0,"CLASSIFICATION_TYPE":"U","NORAD_CAT_ID":63247,"ELEMENT_SET_NO":999,"REV_AT_EPOCH":5382,"BSTAR":0.00071342701,"MEAN_MOTION_DOT":8.013e-5,"MEAN_MOTION_DDOT":0}]
